CUTE-1 (CO-55)          
1 27844U 03031E   26191.00816836  .00000182  00000+0  97603-4 0  9992
2 27844  98.6739 199.2802 0010718 116.0719 244.1564 14.24349450194929
CUBESAT XI-IV (CO-57)   
1 27848U 03031J   26191.99204951  .00000130  00000+0  76313-4 0  9991
2 27848  98.6772 199.9452 0010410 130.5633 229.6453 14.23633076194769
CUBESAT XI-V            
1 28895U 05043F   26191.36800381  .00000898  00000+0  14887-3 0  9997
2 28895  98.3010 347.4805 0015096 129.3634 230.8913 14.72694805105160
CUTE-1.7+APD II (CO-65) 
1 32785U 08021C   26192.17790374  .00003162  00000+0  20044-3 0  9998
2 32785  97.8285 174.1007 0007336 315.7430  44.3211 15.09676401988816
CANX-2                  
1 32790U 08021H   26191.41480104  .00002555  00000+0  18070-3 0  9998
2 32790  97.8654 171.6476 0009255 335.2716  24.8065 15.05787205988305
SEEDS II (CO-66)        
1 32791U 08021J   26191.43592964  .00013245  00000+0  41058-3 0  9999
2 32791  97.7526 190.4573 0002534 167.6964 192.4340 15.33559548990854
SWISSCUBE               
1 35932U 09051B   26192.18281227  .00000531  00000+0  11450-3 0  9990
2 35932  98.4014 100.4874 0007656 129.8333 230.3542 14.62526269892660
BEESAT-1                
1 35933U 09051C   26192.20478775  .00000437  00000+0  97507-4 0  9993
2 35933  98.3941 100.0947 0005911 140.2385 219.9249 14.61758109892691
ITUPSAT1                
1 35935U 09051E   26191.18906354  .00000448  00000+0  10253-3 0  9994
2 35935  98.4025  98.2308 0007739 157.5053 202.6487 14.60474362892091
TISAT 1                 
1 36799U 10035E   26191.30192136  .00014975  00000+0  47786-3 0  9997
2 36799  98.0701 139.9178 0004139 129.6791 230.4814 15.32608332871248
STRAND-1                
1 39090U 13009E   26191.44882477  .00000176  00000+0  73431-4 0  9992
2 39090  98.3931  11.1117 0009149 154.2343 205.9301 14.37177134700402
BRITE-AUSTRIA           
1 39091U 13009F   26190.98422785  .00000106  00000+0  50637-4 0  9999
2 39091  98.4005   9.8568 0010453 165.5592 194.5896 14.36551135700320
NEE-01 PEGASO           
1 39151U 13018B   26190.63966526  .00001233  00000+0  12199-3 0  9996
2 39151  98.1250 335.5366 0013875  90.6498 269.6310 14.93776228714050
POPACS 2                
1 39269U 13055E   26190.24884197  .00014766 -88151-6  24179-3 0  9994
2 39269  80.9909 118.9327 0415457 122.9592 241.2292 14.91853625666502
POPACS 3                
1 39270U 13055F   26192.02760757  .00008478  00000+0  20089-3 0  9997
2 39270  80.9987 203.3277 0549294 357.3911   2.4436 14.56588593642027
ZACUBE-1 (TSHEPISOSAT)  
1 39417U 13066B   26192.20230991  .00001491  00000+0  11848-3 0  9995
2 39417  97.8013 154.6584 0043797 168.0001 192.2277 15.01317932684339
WNISAT-1                
1 39423U 13066H   26191.33787599  .00000802  00000+0  15356-3 0  9999
2 39423  97.7228 338.8542 0163562 158.5388 202.2775 14.58113098670101
TRITON-1                
1 39427U 13066M   26192.20121331  .00001584  00000+0  19375-3 0  9999
2 39427  97.8226 101.4598 0090238 155.0082 205.5541 14.81789207677641
GOMX-1                  
1 39430U 13066Q   26192.15398193  .00001000  00000+0  15616-3 0  9996
2 39430  97.6478  31.1045 0128697   1.2098 358.9396 14.69536877673431
CUBEBUG-2 (LO-74)       
1 39440U 13066AA  26191.30584118  .00001961  00000+0  18439-3 0  9999
2 39440  97.8906 140.3858 0056121 311.9936  47.6511 14.93948233680449
NEE-02 KRYSAOR          
1 39441U 13066AB  26191.29487828  .00001559  00000+0  17498-3 0  9995
2 39441  97.8892 130.3465 0065849 355.4507   4.6102 14.86726426679639
FUNCUBE-1 (AO-73)       
1 39444U 13066AE  26191.98474830  .00004079  00000+0  25254-3 0  9992
2 39444  97.8286 163.9335 0037927 121.2536 239.2417 15.09785992683251
UWE-3                   
1 39446U 13066AG  26191.34114674  .00002018  00000+0  17603-3 0  9991
2 39446  97.8693 147.5751 0047541 241.4844 118.1586 14.97180749681047
BRITE-CA1 (TORONTO)     
1 40020U 14033L   26190.18755172  .00000733  00000+0  11766-3 0  9997
2 40020  97.9764 318.7133 0078005 205.5751 154.1590 14.72715027645456
DUCHIFAT-1              
1 40021U 14033M   26191.96521575  .00098109  00000+0  80479-3 0  9994
2 40021  98.0442 254.5658 0002090 250.6210 109.4824 15.70169676659475
NANOSATC-BR1            
1 40024U 14033Q   26192.04806789  .00011183  00000+0  36184-3 0  9991
2 40024  98.0719 226.5623 0005307 107.0406 253.1416 15.32238644657632
QB50P1                  
1 40025U 14033R   26191.28050615  .00005444  00000+0  26647-3 0  9992
2 40025  98.0969 204.0508 0010055 139.1601 221.0386 15.18618170656530
QB50P2                  
1 40032U 14033Y   26190.81602461  .00005365  00000+0  28728-3 0  9994
2 40032  98.0761 189.1099 0009314  98.7744 261.4542 15.15461423656097
PERSEUS-M2              
1 40037U 14033AD  26192.14945729  .00001552  00000+0  14528-3 0  9991
2 40037  97.9965 143.1793 0010636 213.2786 146.7766 14.95581351654367
PERSEUS-M1              
1 40039U 14033AF  26191.58530649  .00001229  00000+0  11578-3 0  9994
2 40039  97.9649 136.1031 0010660 213.1165 146.9389 14.95703980654134
